{
    "links": {
        "self": "http://www.neowsapp.com/rest/v1/neo/54068389?api_key=iIulBulltgU6a56xZRHN4H3l9WmuAYTsLGpBGhQ2"
    },
    "id": "54068389",
    "neo_reference_id": "54068389",
    "name": "(2020 TO6)",
    "designation": "2020 TO6",
    "nasa_jpl_url": "http://ssd.jpl.nasa.gov/sbdb.cgi?sstr=54068389",
    "absolute_magnitude_h": 23.522,
    "estimated_diameter": {
        "kilometers": {
            "estimated_diameter_min": 0.052499477,
            "estimated_diameter_max": 0.1173923993
        },
        "meters": {
            "estimated_diameter_min": 52.4994769544,
            "estimated_diameter_max": 117.3923992532
        },
        "miles": {
            "estimated_diameter_min": 0.0326216525,
            "estimated_diameter_max": 0.0729442325
        },
        "feet": {
            "estimated_diameter_min": 172.242383971,
            "estimated_diameter_max": 385.1456791658
        }
    },
    "is_potentially_hazardous_asteroid": false,
    "close_approach_data": [
        {
            "close_approach_date": "2020-09-09",
            "close_approach_date_full": "2020-Sep-09 15:30",
            "epoch_date_close_approach": 1599665400000,
            "relative_velocity": {
                "kilometers_per_second": "6.548388477",
                "kilometers_per_hour": "23574.198517259",
                "miles_per_hour": "14648.090184238"
            },
            "miss_distance": {
                "astronomical": "0.134327051",
                "lunar": "52.253222839",
                "kilometers": "20095040.71298137",
                "miles": "12486479.293308106"
            },
            "orbiting_body": "Earth"
        }
    ],
    "orbital_data": {
        "orbit_id": "3",
        "orbit_determination_date": "2020-10-18 08:07:43",
        "first_observation_date": "2020-10-14",
        "last_observation_date": "2020-10-18",
        "data_arc_in_days": 4,
        "observations_used": 16,
        "orbit_uncertainty": "8",
        "minimum_orbit_intersection": ".123385",
        "jupiter_tisserand_invariant": "3.572",
        "epoch_osculation": "2459137.5",
        "eccentricity": ".4902364734898518",
        "semi_major_axis": "2.108341267265904",
        "inclination": "5.809768674522977",
        "ascending_node_longitude": "65.28619487941393",
        "orbital_period": "1118.175033165914",
        "perihelion_distance": "1.074755479488342",
        "perihelion_argument": "269.1254937646869",
        "aphelion_distance": "3.141927055043465",
        "perihelion_time": "2459092.533086654228",
        "mean_anomaly": "14.47724043582355",
        "mean_motion": ".3219531730919835",
        "equinox": "J2000",
        "orbit_class": {
            "orbit_class_type": "AMO",
            "orbit_class_description": "Near-Earth asteroid orbits similar to that of 1221 Amor",
            "orbit_class_range": "1.017 AU < q (perihelion) < 1.3 AU"
        }
    },
    "is_sentry_object": false
}